H1 CPF  1  DLR 2022 08 07 10  7192 technosat            
H2  1704205 6203    42829 2022 08 07 00 00 00 2022 08 14 00 00 00    60 1 1  0 0 0
H9
10 0 59802  36000.000000  0       5627442.668      -4100004.106        521021.084
10 0 59802  36060.000000  0       5535425.683      -4142877.049        967643.849
10 0 59802  36120.000000  0       5419856.625      -4167434.908       1410171.420
10 0 59802  36180.000000  0       5281379.212      -4173368.540       1846730.129
10 0 59802  36240.000000  0       5120736.474      -4160453.542       2275471.233
10 0 59802  36300.000000  0       4938766.840      -4128552.062       2694578.834
10 0 59802  36360.000000  0       4736399.799      -4077614.181       3102277.683
10 0 59802  36420.000000  0       4514651.173      -4007678.856       3496840.778
10 0 59802  36480.000000  0       4274618.014      -3918874.468       3876596.739
10 0 59802  36540.000000  0       4017473.128      -3811418.965       4239936.974
10 0 59802  36600.000000  0       3744459.194      -3685619.515       4585322.543
10 0 59802  36660.000000  0       3456882.625      -3541871.677       4911290.615
10 0 59802  36720.000000  0       3156107.268      -3380658.195       5216460.548
10 0 59802  36780.000000  0       2843547.904      -3202547.402       5499539.705
10 0 59802  36840.000000  0       2520663.492      -3008191.174       5759328.865
10 0 59802  36900.000000  0       2188950.262      -2798322.495       5994727.157
10 0 59802  36960.000000  0       1849934.723      -2573752.666       6204736.571
10 0 59802  37020.000000  0       1505166.631      -2335368.148       6388466.039
10 0 59802  37080.000000  0       1156211.884      -2084127.053       6545135.119
10 0 59802  37140.000000  0        804645.390      -1821055.259       6674077.193
10 0 59802  37200.000000  0        452043.983      -1547242.237       6774742.181
10 0 59802  37260.000000  0         99979.391      -1263836.556       6846698.854
10 0 59802  37320.000000  0       -249988.753       -972041.044       6889636.623
10 0 59802  37380.000000  0       -596319.759       -673107.742       6903366.844
10 0 59802  37440.000000  0       -937498.634       -368332.596       6887823.735
10 0 59802  37500.000000  0      -1272042.728        -59049.859       6843064.763
10 0 59802  37560.000000  0      -1598508.168        253373.701       6769270.535
10 0 59802  37620.000000  0      -1915496.100        567544.808       6666744.239
10 0 59802  37680.000000  0      -2221658.749        882049.855       6535910.582
10 0 59802  37740.000000  0      -2515705.234       1195461.238       6377314.224
10 0 59802  37800.000000  0      -2796407.089       1506343.829       6191617.753
10 0 59802  37860.000000  0      -3062603.535       1813261.553       5979599.198
10 0 59802  37920.000000  0      -3313206.474       2114784.074       5742149.056
10 0 59802  37980.000000  0      -3547205.165       2409493.561       5480266.801
10 0 59802  38040.000000  0      -3763670.517       2695991.474       5195056.873
10 0 59802  38100.000000  0      -3961759.004       2972905.302       4887724.193
10 0 59802  38160.000000  0      -4140716.205       3238895.283       4559569.278
10 0 59802  38220.000000  0      -4299879.954       3492661.053       4211982.849
10 0 59802  38280.000000  0      -4438683.017       3732948.162       3846440.019
10 0 59802  38340.000000  0      -4556655.343       3958554.476       3464494.058
10 0 59802  38400.000000  0      -4653425.793       4168336.353       3067769.732
10 0 59802  38460.000000  0      -4728723.395       4361214.652       2657956.358
10 0 59802  38520.000000  0      -4782378.102       4536180.496       2236800.450
10 0 59802  38580.000000  0      -4814321.033       4692300.657       1806098.039
10 0 59802  38640.000000  0      -4824584.207       4828722.581       1367686.764
10 0 59802  38700.000000  0      -4813299.787       4944679.033        923437.751
10 0 59802  38760.000000  0      -4780698.833       5039492.350        475247.356
10 0 59802  38820.000000  0      -4727109.572       5112578.309         25028.740
10 0 59802  38880.000000  0      -4652955.187       5163449.558       -425296.667
10 0 59802  38940.000000  0      -4558751.109       5191718.584       -873807.859
10 0 59802  39000.000000  0      -4445101.615       5197099.973      -1318592.939
10 0 59802  39060.000000  0      -4312696.112       5179412.179      -1757757.422
10 0 59802  39120.000000  0      -4162305.183       5138578.991      -2189432.607
10 0 59802  39180.000000  0      -3994776.144       5074630.286      -2611783.902
10 0 59802  39240.000000  0      -3811028.190       4987702.245      -3023018.837
10 0 59802  39300.000000  0      -3612047.234       4878037.028      -3421394.810
10 0 59802  39360.000000  0      -3398880.495       4745981.932      -3805226.497
10 0 59802  39420.000000  0      -3172630.869       4591988.083      -4172892.971
10 0 59802  39480.000000  0      -2934451.076       4416608.589      -4522844.478
10 0 59802  39540.000000  0      -2685537.652       4220496.263      -4853608.740
10 0 59802  39600.000000  0      -2427124.894       4004400.973      -5163796.950
10 0 59802  39660.000000  0      -2160478.650       3769166.491      -5452109.422
10 0 59802  39720.000000  0      -1886890.041       3515726.899      -5717340.783
10 0 59802  39780.000000  0      -1607669.147       3245102.588      -5958384.725
10 0 59802  39840.000000  0      -1324138.691       2958395.866      -6174238.277
10 0 59802  39900.000000  0      -1037627.760       2656786.216      -6364005.596
10 0 59802  39960.000000  0       -749465.621       2341525.278      -6526901.237
10 0 59802  40020.000000  0       -460975.628       2013931.589      -6662253.054
10 0 59802  40080.000000  0       -173469.244       1675384.944      -6769504.611
10 0 59802  40140.000000  0        111759.741       1327320.569      -6848217.124
10 0 59802  40200.000000  0        393440.903        971223.095      -6898071.020
10 0 59802  40260.000000  0        670332.749        608620.305      -6918867.039
10 0 59802  40320.000000  0        941228.082        241076.622      -6910526.849
10 0 59802  40380.000000  0       1204959.119       -129813.565      -6873093.128
10 0 59802  40440.000000  0       1460402.360       -502432.667      -6806729.213
10 0 59802  40500.000000  0       1706483.203       -875146.751      -6711718.352
10 0 59802  40560.000000  0       1942180.327      -1246312.527      -6588462.585
10 0 59802  40620.000000  0       2166529.876      -1614284.434      -6437481.109
10 0 59802  40680.000000  0       2378629.297      -1977421.713      -6259408.199
10 0 59802  40740.000000  0       2577640.884      -2334095.540      -6054990.824
10 0 59802  40800.000000  0       2762795.090      -2682696.259      -5825085.843
10 0 59802  40860.000000  0       2933393.554      -3021640.654      -5570656.673
10 0 59802  40920.000000  0       3088811.772      -3349379.154      -5292769.446
10 0 59802  40980.000000  0       3228501.365      -3664402.868      -4992588.703
10 0 59802  41040.000000  0       3351991.973      -3965250.474      -4671372.766
10 0 59802  41100.000000  0       3458892.821      -4250514.967      -4330468.772
10 0 59802  41160.000000  0       3548893.957      -4518850.308      -3971307.336
10 0 59802  41220.000000  0       3621767.134      -4768977.854      -3595396.823
10 0 59802  41280.000000  0       3677366.351      -4999692.604      -3204317.265
10 0 59802  41340.000000  0       3715627.960      -5209869.225      -2799713.860
10 0 59802  41400.000000  0       3736570.334      -5398467.689      -2383290.115
10 0 59802  41460.000000  0       3740293.166      -5564538.488      -1956800.724
10 0 59802  41520.000000  0       3726976.419      -5707227.542      -1522044.269
10 0 59802  41580.000000  0       3696878.879      -5825780.753      -1080855.597
10 0 59802  41640.000000  0       3650336.286      -5919548.057       -635097.976
10 0 59802  41700.000000  0       3587759.068      -5987986.979       -186655.119
10 0 59802  41760.000000  0       3509629.706      -6030665.700        262576.865
10 0 59802  41820.000000  0       3416499.794      -6047265.648        710697.561
10 0 59802  41880.000000  0       3308986.824      -6037583.602       1155810.458
10 0 59802  41940.000000  0       3187770.585      -6001533.195       1596031.257
10 0 59802  42000.000000  0       3053589.197      -5939145.719       2029496.009
10 0 59802  42060.000000  0       2907234.968      -5850570.503       2454369.084
10 0 59802  42120.000000  0       2749549.951      -5736074.709       2868851.104
10 0 59802  42180.000000  0       2581421.275      -5596042.549       3271186.585
10 0 59802  42240.000000  0       2403776.397      -5430974.015       3659671.436
10 0 59802  42300.000000  0       2217578.143      -5241483.060       4032660.251
10 0 59802  42360.000000  0       2023819.581      -5028295.208       4388573.330
10 0 59802  42420.000000  0       1823518.823      -4792244.606       4725903.321
10 0 59802  42480.000000  0       1617713.833      -4534270.656       5043221.541
10 0 59802  42540.000000  0       1407457.133      -4255414.187       5339184.067
10 0 59802  42600.000000  0       1193810.419      -3956813.028       5612537.393
10 0 59802  42660.000000  0        977839.226      -3639697.176       5862123.576
10 0 59802  42720.000000  0        760607.664      -3305383.584       6086884.955
10 0 59802  42780.000000  0        543173.241      -2955270.617       6285868.458
10 0 59802  42840.000000  0        326581.764      -2590832.150       6458229.515
10 0 59802  42900.000000  0        111862.373      -2213611.302       6603235.480
10 0 59802  42960.000000  0        -99977.267      -1825213.955       6720268.617
10 0 59802  43020.000000  0       -307955.667      -1427301.969       6808828.744
10 0 59802  43080.000000  0       -511122.041      -1021586.038       6868535.359
10 0 59802  43140.000000  0       -708560.603       -609818.352       6899129.247
99
